#aV2022  9 15  0  0  0.00000000     288 DD+AD WGS84 FIT  NGA
## 2227 345600.00000000   300.00000000 59837 0.0000000000000
+   32     1  2  3  4  5  6  7  8  9 10 11 12 13 14 15 16 17
+         18 19 20 21 22 23 24 25 26 27 28 29 30 31 32  0  0
+          0  0  0  0  0  0  0  0  0  0  0  0  0  0  0  0  0
+          0  0  0  0  0  0  0  0  0  0  0  0  0  0  0  0  0
+          0  0  0  0  0  0  0  0  0  0  0  0  0  0  0  0  0
++         2  2  2  2  2  2  2  2  2  2  2  2  2  2  2  2  2
++         2  2  2  2  2  2  2  2  2  2  2  2  2  2  2  0  0
++         0  0  0  0  0  0  0  0  0  0  0  0  0  0  0  0  0
++         0  0  0  0  0  0  0  0  0  0  0  0  0  0  0  0  0
++         0  0  0  0  0  0  0  0  0  0  0  0  0  0  0  0  0
%c cc cc ccc ccc cccc cccc cccc cccc ccccc ccccc ccccc ccccc
%c cc cc ccc ccc cccc cccc cccc cccc ccccc ccccc ccccc ccccc
%f  0.0000000  0.000000000  0.00000000000  0.000000000000000
%f  0.0000000  0.000000000  0.00000000000  0.000000000000000
%i    0    0    0    0      0      0      0      0         0
%i    0    0    0    0      0      0      0      0         0
/*      NGA, ST. LOUIS,MO.                                  
/*   EPHEMERIS COMPUTED FROM 2 DAYS OF DATA                 
/*   EPOCHA v8 SMOOTHER                                     
/*   G2139 IERS2010 SATIGS SATAPC                           
*  2022  9 15 17 30  0.00000000
P  1 -13369.917492  22270.745929  -4889.465969    283.427589                    
V  1  -5284.658754   3298.944639  31787.850087     -0.065194                    
P  2  16255.943270 -20705.581773  -3591.686843   -645.929044                    
V  2   -758.494857   5834.574126 -31338.529853      0.013097                    
P  3 -11319.222552  12601.808640 -20554.202646   -351.424753                    
V  3 -25484.817231  -4148.247566  11665.982684     -0.062582                    
P  4  -3908.025954  20896.371494 -15859.028572   -118.271335                    
V  4  -8989.014522 -18174.141223 -21820.232890      0.056188                    
P  5  22053.206556  -7166.499057  12894.609008    -96.779985                    
V  5  16365.934858   3581.344795 -25517.603262     -0.014039                    
P  6  15264.470479   3333.349489 -21429.434884    461.793737                    
V  6 -16274.768561  21881.069621  -8095.120629      0.124874                    
P  7   -275.171627  20428.526900  17120.477470    307.318777                    
V  7 -14564.976067  15503.055903 -19693.461967     -0.030319                    
P  8 -10082.208303  12936.725142  20775.764365    -84.754459                    
V  8 -11718.094169 -23846.811394   9493.549422     -0.015589                    
P  9   6066.488690  25032.087682  -6479.379886   -295.698851                    
V  9  -5935.149197  -6279.393604 -30206.892336      0.047688                    
P 10 -20243.981010 -11538.618525  13178.666025     -3.416016                    
V 10  16425.606673    391.928516  25568.372658     -0.016473                    
P 11  20251.361453  -7093.417781 -15630.050323    -16.756490                    
V 11 -11380.852762  16381.347592 -22213.741326     -0.028474                    
P 12  12975.755661 -11641.216450 -20275.496079   -278.813238                    
V 12  24476.667113   5939.801283  12517.506526     -0.060069                    
P 13  14466.122931  -3778.599600  21785.492487    388.097330                    
V 13   7294.722049  27071.339921     32.088086      0.072810                    
P 14  18310.513334  13203.738236  14089.304272   -103.318963                    
V 14 -17993.841239   -632.689456  23880.906363      0.027463                    
P 15   8847.524055 -14375.498371  20006.170630    -28.761454                    
V 15  14574.975778  22252.246432   9638.518639      0.031103                    
P 16 -25548.836318   -114.384321   7797.781595   -524.186247                    
V 16  -9454.052656  -4258.751858 -29529.630146     -0.010453                    
P 17  12807.866034  21912.168937  -7282.350595    659.432264                    
V 17   1063.602699  10043.464624  30336.115774      0.038267                    
P 18    348.881949 -19799.264009  17627.721850     47.520336                    
V 18  15118.280327 -16625.127032 -19096.260485     -0.127527                    
P 19  15781.496244  14148.248671 -16403.860552    211.107521                    
V 19   4504.146812  19780.899945  21470.027604      0.050598                    
P 20  26421.060351   -810.051512   -126.674654    486.183040                    
V 20    -49.534618   3543.867683 -31537.110867     -0.030963                    
P 21 -17082.447631  19105.078241   5892.139011    159.404631                    
V 21    959.589587  -7519.966171  31041.243785     -0.004572                    
P 22 -16324.057988 -11477.971630 -17196.317268    328.398302                    
V 22  -5350.817319 -22013.037284  19133.694903      0.068247                    
P 23 -10733.626254 -14505.266902  19521.101530    -39.729704                    
V 23  24732.211993   1348.852990  14468.817652     -0.007917                    
P 24  14130.402960 -22214.536425    -63.034679    134.451482                    
V 24   3233.196372   2411.812292  31433.035293     -0.130657                    
P 25   -805.156925 -15609.462968 -21780.611757    372.343065                    
V 25  26803.127929   3039.112612  -2942.179693      0.040972                    
P 26 -26443.990183  -3358.753155  -2126.479818    228.635151                    
V 26   2800.099205  -3121.210835 -30837.524359      0.016512                    
P 27 -15825.632342   -279.077019  21175.033818    211.151524                    
V 27 -10171.211844 -25330.541490  -7472.813278     -0.041329                    
P 28  23624.153962  10065.090394   6771.041178    338.004201                    
V 28  -8366.831562    817.212356  30478.437757     -0.023445                    
P 29  -3355.197497 -25324.608412  -7155.461208   -551.801667                    
V 29   4892.386209   7887.840316 -30480.380246     -0.031820                    
P 30   9500.834546  13097.757548  21124.205857   -536.969333                    
V 30 -17056.109094  20608.195620  -5382.510802     -0.002289                    
P 31 -16780.322806  -2437.471143 -20687.287289   -193.455045                    
V 31  15581.819563 -20652.867078  -9820.246169     -0.013387                    
P 32 -15642.187713 -19192.784537  -9723.392954   -234.182031                    
V 32  -2654.386843 -12463.863177  28245.937548     -0.113067                    
EOF
